SL-8 R/B                
1 19257U 88053B   26106.56918939  .00000088  00000+0  37120-4 0  9995
2 19257  74.0487  42.6389 0020955 216.2942 318.7140 14.38938463982041
COSMOS 1975             
1 19573U 88093A   26106.63361197  .00003255  00000+0  11570-3 0  9995
2 19573  82.5174  79.5696 0012732  45.1407 315.0865 15.28558672 25208
SL-14 R/B               
1 19574U 88093B   26106.97537394  .00000242  00000+0  25093-4 0  9996
2 19574  82.5343   6.1134 0019073 271.8035  98.2054 14.85698280  6706
SL-16 R/B               
1 19650U 88102B   26106.62387366 -.00000174  00000+0 -63851-4 0  9996
2 19650  70.9992  71.6756 0016106 307.1971  52.7681 14.16159790932267
INTERCOSMOS 24          
1 20261U 89080A   26106.61353492  .00000252  00000+0  70961-4 0  9999
2 20261  82.6027  79.7027 1187314 204.7388 149.2028 12.59597404671575
SL-14 R/B               
1 20262U 89080C   26106.56301240  .00000226  00000+0  58140-4 0  9994
2 20262  82.5924 148.8827 1230967  98.2265 275.9978 12.50524901664880
DELTA 1 R/B             
1 20323U 89089B   26106.83285027  .00000157  00000+0  47538-4 0  9997
2 20323  97.0674 308.1957 0069128   3.3138 356.8504 14.50692889901263
ARIANE 40 R/B           
1 20443U 90005H   26106.61635169  .00000133  00000+0  55733-4 0  9992
2 20443  98.3011 166.1330 0011392  91.8040 268.4453 14.39894946898267
DELTA 2 R/B(1)          
1 20453U 90008B   26106.74391076  .00035845  00000+0  35591-3 0  9993
2 20453  35.6027 284.1382 0076169 256.5943 102.6295 15.61001969932074
COSMOS 2058             
1 20465U 90010A   26106.44906738  .00001528  00000+0  88067-4 0  9991
2 20465  82.4724  10.2269 0009010 195.8561 164.2388 15.11658468947941
SL-14 R/B               
1 20466U 90010B   26106.59147688  .00000274  00000+0  30220-4 0  9994
2 20466  82.5028 231.7816 0020056 170.8022 189.3565 14.83605874934106
SL-14 R/B               
1 20511U 90018B   26106.64561163  .00000227  00000+0  25464-4 0  9999
2 20511  82.5241 187.6245 0015393 331.6593  28.3782 14.82180098928209
HST                     
1 20580U 90037B   26106.78009151  .00004117  00000+0  12991-3 0  9997
2 20580  28.4727 140.0386 0002107 177.0231 183.0377 15.30061930779156
SL-16 R/B               
1 20625U 90046B   26106.65862928 -.00000267  00000+0 -11281-3 0  9997
2 20625  70.9993 218.1678 0016448 250.0371 109.8981 14.15016348853766
COSMOS 2084             
1 20663U 90055A   26106.64177748  .00001311  00000+0  10360-3 0  9993
2 20663  62.7891 206.1113 0011066 204.6672 155.3901 15.05870986942038
SL-6 R/B(2)             
1 20666U 90055D   26106.74333332  .00000973  00000+0  84576-4 0  9994
2 20666  62.7805 124.4246 0031004 355.1882   4.8914 15.03763725943914
SL-8 R/B                
1 20775U 90078B   26106.66200154  .00009581  00000+0  28230-3 0  9994
2 20775  82.9058 217.1303 0356650 245.7254 110.6332 14.90091545814957
