[{"OBJECT_NAME":"SL-8 R/B","OBJECT_ID":"1988-053B","EPOCH":"2026-04-16T13:39:37.963296","MEAN_MOTION":14.38938463,"ECCENTRICITY":0.00209557,"INCLINATION":74.0487,"RA_OF_ASC_NODE":42.6389,"ARG_OF_PERICENTER":216.2942,"MEAN_ANOMALY":318.714,"EPHEMERIS_TYPE":0,"CLASSIFICATION_TYPE":"U","NORAD_CAT_ID":19257,"ELEMENT_SET_NO":999,"REV_AT_EPOCH":98204,"BSTAR":3.7119505e-5,"MEAN_MOTION_DOT":8.8e-7,"MEAN_MOTION_DDOT":0},{"OBJECT_NAME":"COSMOS 1975","OBJECT_ID":"1988-093A","EPOCH":"2026-04-16T15:12:24.074208","MEAN_MOTION":15.28558672,"ECCENTRICITY":0.00127325,"INCLINATION":82.5174,"RA_OF_ASC_NODE":79.5696,"ARG_OF_PERICENTER":45.1407,"MEAN_ANOMALY":315.0865,"EPHEMERIS_TYPE":0,"CLASSIFICATION_TYPE":"U","NORAD_CAT_ID":19573,"ELEMENT_SET_NO":999,"REV_AT_EPOCH":2520,"BSTAR":0.00011570128,"MEAN_MOTION_DOT":3.255e-5,"MEAN_MOTION_DDOT":0},{"OBJECT_NAME":"SL-14 R/B","OBJECT_ID":"1988-093B","EPOCH":"2026-04-16T23:24:32.308416","MEAN_MOTION":14.8569828,"ECCENTRICITY":0.00190739,"INCLINATION":82.5343,"RA_OF_ASC_NODE":6.1134,"ARG_OF_PERICENTER":271.8035,"MEAN_ANOMALY":98.2054,"EPHEMERIS_TYPE":0,"CLASSIFICATION_TYPE":"U","NORAD_CAT_ID":19574,"ELEMENT_SET_NO":999,"REV_AT_EPOCH":670,"BSTAR":2.5093074e-5,"MEAN_MOTION_DOT":2.42e-6,"MEAN_MOTION_DDOT":0},{"OBJECT_NAME":"SL-16 R/B","OBJECT_ID":"1988-102B","EPOCH":"2026-04-16T14:58:22.684224","MEAN_MOTION":14.1615979,"ECCENTRICITY":0.0016106,"INCLINATION":70.9992,"RA_OF_ASC_NODE":71.6756,"ARG_OF_PERICENTER":307.1971,"MEAN_ANOMALY":52.7681,"EPHEMERIS_TYPE":0,"CLASSIFICATION_TYPE":"U","NORAD_CAT_ID":19650,"ELEMENT_SET_NO":999,"REV_AT_EPOCH":93226,"BSTAR":-6.3851284e-5,"MEAN_MOTION_DOT":-1.74e-6,"MEAN_MOTION_DDOT":0},{"OBJECT_NAME":"INTERCOSMOS 24","OBJECT_ID":"1989-080A","EPOCH":"2026-04-16T14:43:29.417088","MEAN_MOTION":12.59597404,"ECCENTRICITY":0.11873149,"INCLINATION":82.6027,"RA_OF_ASC_NODE":79.7027,"ARG_OF_PERICENTER":204.7388,"MEAN_ANOMALY":149.2028,"EPHEMERIS_TYPE":0,"CLASSIFICATION_TYPE":"U","NORAD_CAT_ID":20261,"ELEMENT_SET_NO":999,"REV_AT_EPOCH":67157,"BSTAR":7.096143e-5,"MEAN_MOTION_DOT":2.52e-6,"MEAN_MOTION_DDOT":0},{"OBJECT_NAME":"SL-14 R/B","OBJECT_ID":"1989-080C","EPOCH":"2026-04-16T13:30:44.271360","MEAN_MOTION":12.50524901,"ECCENTRICITY":0.1230967,"INCLINATION":82.5924,"RA_OF_ASC_NODE":148.8827,"ARG_OF_PERICENTER":98.2265,"MEAN_ANOMALY":275.9978,"EPHEMERIS_TYPE":0,"CLASSIFICATION_TYPE":"U","NORAD_CAT_ID":20262,"ELEMENT_SET_NO":999,"REV_AT_EPOCH":66488,"BSTAR":5.8140184e-5,"MEAN_MOTION_DOT":2.26e-6,"MEAN_MOTION_DDOT":0},{"OBJECT_NAME":"DELTA 1 R/B","OBJECT_ID":"1989-089B","EPOCH":"2026-04-16T19:59:18.263328","MEAN_MOTION":14.50692889,"ECCENTRICITY":0.00691287,"INCLINATION":97.0674,"RA_OF_ASC_NODE":308.1957,"ARG_OF_PERICENTER":3.3138,"MEAN_ANOMALY":356.8504,"EPHEMERIS_TYPE":0,"CLASSIFICATION_TYPE":"U","NORAD_CAT_ID":20323,"ELEMENT_SET_NO":999,"REV_AT_EPOCH":90126,"BSTAR":4.7537838e-5,"MEAN_MOTION_DOT":1.57e-6,"MEAN_MOTION_DDOT":0},{"OBJECT_NAME":"ARIANE 40 R/B","OBJECT_ID":"1990-005H","EPOCH":"2026-04-16T14:47:32.786016","MEAN_MOTION":14.39894946,"ECCENTRICITY":0.0011392,"INCLINATION":98.3011,"RA_OF_ASC_NODE":166.133,"ARG_OF_PERICENTER":91.804,"MEAN_ANOMALY":268.4453,"EPHEMERIS_TYPE":0,"CLASSIFICATION_TYPE":"U","NORAD_CAT_ID":20443,"ELEMENT_SET_NO":999,"REV_AT_EPOCH":89826,"BSTAR":5.5732699e-5,"MEAN_MOTION_DOT":1.33e-6,"MEAN_MOTION_DDOT":0},{"OBJECT_NAME":"DELTA 2 R/B(1)","OBJECT_ID":"1990-008B","EPOCH":"2026-04-16T17:51:13.889664","MEAN_MOTION":15.61001969,"ECCENTRICITY":0.00761699,"INCLINATION":35.6027,"RA_OF_ASC_NODE":284.1382,"ARG_OF_PERICENTER":256.5943,"MEAN_ANOMALY":102.6295,"EPHEMERIS_TYPE":0,"CLASSIFICATION_TYPE":"U","NORAD_CAT_ID":20453,"ELEMENT_SET_NO":999,"REV_AT_EPOCH":93207,"BSTAR":0.00035591186,"MEAN_MOTION_DOT":0.00035845,"MEAN_MOTION_DDOT":0},{"OBJECT_NAME":"COSMOS 2058","OBJECT_ID":"1990-010A","EPOCH":"2026-04-16T10:46:39.421632","MEAN_MOTION":15.11658468,"ECCENTRICITY":0.00090104,"INCLINATION":82.4724,"RA_OF_ASC_NODE":10.2269,"ARG_OF_PERICENTER":195.8561,"MEAN_ANOMALY":164.2388,"EPHEMERIS_TYPE":0,"CLASSIFICATION_TYPE":"U","NORAD_CAT_ID":20465,"ELEMENT_SET_NO":999,"REV_AT_EPOCH":94794,"BSTAR":8.8067417e-5,"MEAN_MOTION_DOT":1.528e-5,"MEAN_MOTION_DDOT":0},{"OBJECT_NAME":"SL-14 R/B","OBJECT_ID":"1990-010B","EPOCH":"2026-04-16T14:11:43.602432","MEAN_MOTION":14.83605874,"ECCENTRICITY":0.00200568,"INCLINATION":82.5028,"RA_OF_ASC_NODE":231.7816,"ARG_OF_PERICENTER":170.8022,"MEAN_ANOMALY":189.3565,"EPHEMERIS_TYPE":0,"CLASSIFICATION_TYPE":"U","NORAD_CAT_ID":20466,"ELEMENT_SET_NO":999,"REV_AT_EPOCH":93410,"BSTAR":3.0219509e-5,"MEAN_MOTION_DOT":2.74e-6,"MEAN_MOTION_DDOT":0},{"OBJECT_NAME":"SL-14 R/B","OBJECT_ID":"1990-018B","EPOCH":"2026-04-16T15:29:40.844832","MEAN_MOTION":14.82180098,"ECCENTRICITY":0.00153937,"INCLINATION":82.5241,"RA_OF_ASC_NODE":187.6245,"ARG_OF_PERICENTER":331.6593,"MEAN_ANOMALY":28.3782,"EPHEMERIS_TYPE":0,"CLASSIFICATION_TYPE":"U","NORAD_CAT_ID":20511,"ELEMENT_SET_NO":999,"REV_AT_EPOCH":92820,"BSTAR":2.5463841e-5,"MEAN_MOTION_DOT":2.27e-6,"MEAN_MOTION_DDOT":0},{"OBJECT_NAME":"HST","OBJECT_ID":"1990-037B","EPOCH":"2026-04-16T18:43:19.906464","MEAN_MOTION":15.3006193,"ECCENTRICITY":0.00021076,"INCLINATION":28.4727,"RA_OF_ASC_NODE":140.0386,"ARG_OF_PERICENTER":177.0231,"MEAN_ANOMALY":183.0377,"EPHEMERIS_TYPE":0,"CLASSIFICATION_TYPE":"U","NORAD_CAT_ID":20580,"ELEMENT_SET_NO":999,"REV_AT_EPOCH":77915,"BSTAR":0.00012990825,"MEAN_MOTION_DOT":4.117e-5,"MEAN_MOTION_DDOT":0},{"OBJECT_NAME":"SL-16 R/B","OBJECT_ID":"1990-046B","EPOCH":"2026-04-16T15:48:25.569792","MEAN_MOTION":14.15016348,"ECCENTRICITY":0.00164481,"INCLINATION":70.9993,"RA_OF_ASC_NODE":218.1678,"ARG_OF_PERICENTER":250.0371,"MEAN_ANOMALY":109.8981,"EPHEMERIS_TYPE":0,"CLASSIFICATION_TYPE":"U","NORAD_CAT_ID":20625,"ELEMENT_SET_NO":999,"REV_AT_EPOCH":85376,"BSTAR":-0.00011281215,"MEAN_MOTION_DOT":-2.67e-6,"MEAN_MOTION_DDOT":0},{"OBJECT_NAME":"COSMOS 2084","OBJECT_ID":"1990-055A","EPOCH":"2026-04-16T15:24:09.574272","MEAN_MOTION":15.05870986,"ECCENTRICITY":0.00110662,"INCLINATION":62.7891,"RA_OF_ASC_NODE":206.1113,"ARG_OF_PERICENTER":204.6672,"MEAN_ANOMALY":155.3901,"EPHEMERIS_TYPE":0,"CLASSIFICATION_TYPE":"U","NORAD_CAT_ID":20663,"ELEMENT_SET_NO":999,"REV_AT_EPOCH":94203,"BSTAR":0.0001036046,"MEAN_MOTION_DOT":1.311e-5,"MEAN_MOTION_DDOT":0},{"OBJECT_NAME":"SL-6 R/B(2)","OBJECT_ID":"1990-055D","EPOCH":"2026-04-16T17:50:23.998848","MEAN_MOTION":15.03763725,"ECCENTRICITY":0.00310045,"INCLINATION":62.7805,"RA_OF_ASC_NODE":124.4246,"ARG_OF_PERICENTER":355.1882,"MEAN_ANOMALY":4.8914,"EPHEMERIS_TYPE":0,"CLASSIFICATION_TYPE":"U","NORAD_CAT_ID":20666,"ELEMENT_SET_NO":999,"REV_AT_EPOCH":94391,"BSTAR":8.4576173e-5,"MEAN_MOTION_DOT":9.73e-6,"MEAN_MOTION_DDOT":0},{"OBJECT_NAME":"SL-8 R/B","OBJECT_ID":"1990-078B","EPOCH":"2026-04-16T15:53:16.933056","MEAN_MOTION":14.90091545,"ECCENTRICITY":0.03566504,"INCLINATION":82.9058,"RA_OF_ASC_NODE":217.1303,"ARG_OF_PERICENTER":245.7254,"MEAN_ANOMALY":110.6332,"EPHEMERIS_TYPE":0,"CLASSIFICATION_TYPE":"U","NORAD_CAT_ID":20775,"ELEMENT_SET_NO":999,"REV_AT_EPOCH":81495,"BSTAR":0.00028230212,"MEAN_MOTION_DOT":9.581e-5,"MEAN_MOTION_DDOT":0}]
